{
    "links": {
        "self": "http://www.neowsapp.com/rest/v1/neo/3653048?api_key=iIulBulltgU6a56xZRHN4H3l9WmuAYTsLGpBGhQ2"
    },
    "id": "3653048",
    "neo_reference_id": "3653048",
    "name": "(2013 UU1)",
    "designation": "2013 UU1",
    "nasa_jpl_url": "http://ssd.jpl.nasa.gov/sbdb.cgi?sstr=3653048",
    "absolute_magnitude_h": 24.3,
    "estimated_diameter": {
        "kilometers": {
            "estimated_diameter_min": 0.0366906138,
            "estimated_diameter_max": 0.0820427065
        },
        "meters": {
            "estimated_diameter_min": 36.6906137531,
            "estimated_diameter_max": 82.0427064882
        },
        "miles": {
            "estimated_diameter_min": 0.0227984834,
            "estimated_diameter_max": 0.0509789586
        },
        "feet": {
            "estimated_diameter_min": 120.3760332259,
            "estimated_diameter_max": 269.1689931548
        }
    },
    "is_potentially_hazardous_asteroid": false,
    "close_approach_data": [
        {
            "close_approach_date": "2013-10-23",
            "close_approach_date_full": "2013-Oct-23 00:04",
            "epoch_date_close_approach": 1382486640000,
            "relative_velocity": {
                "kilometers_per_second": "6.2936144722",
                "kilometers_per_hour": "22657.0120997499",
                "miles_per_hour": "14078.1862127585"
            },
            "miss_distance": {
                "astronomical": "0.0651860968",
                "lunar": "25.3573916552",
                "kilometers": "9751701.234893816",
                "miles": "6059426.1680380208"
            },
            "orbiting_body": "Earth"
        }
    ],
    "orbital_data": {
        "orbit_id": "13",
        "orbit_determination_date": "2017-04-06 08:44:03",
        "first_observation_date": "2013-10-23",
        "last_observation_date": "2013-11-15",
        "data_arc_in_days": 23,
        "observations_used": 36,
        "orbit_uncertainty": "7",
        "minimum_orbit_intersection": ".0684599",
        "jupiter_tisserand_invariant": "3.304",
        "epoch_osculation": "2459000.5",
        "eccentricity": ".5572797866204121",
        "semi_major_axis": "2.387387201946497",
        "inclination": "1.633020188606802",
        "ascending_node_longitude": "144.0284754567544",
        "orbital_period": "1347.357111609408",
        "perihelion_distance": "1.056944571465451",
        "perihelion_argument": "248.5175474799893",
        "aphelion_distance": "3.717829832427544",
        "perihelion_time": "2459281.746829756604",
        "mean_anomaly": "284.8537319171186",
        "mean_motion": ".2671897427178624",
        "equinox": "J2000",
        "orbit_class": {
            "orbit_class_type": "AMO",
            "orbit_class_description": "Near-Earth asteroid orbits similar to that of 1221 Amor",
            "orbit_class_range": "1.017 AU < q (perihelion) < 1.3 AU"
        }
    },
    "is_sentry_object": false
}